{
    "satellites": [
        {
            "name": "starlink379",
            "title": "Starlink-379 (G17-14)",
            "tle": [
                "1 68824C 26089Y   26123.39909722  .00066421  00000+0  34719-3 0  1232",
                "2 68824  97.2838 329.0000 0000805 107.6985 359.1174 15.80801700    11"
            ],
            "stdMag": 5,
            "noradId": "68824",
            "intDes": null,
            "tleUrl": "http://celestrak.org/NORAD/elements/supplemental/sup-gp.php?FILE=starlink&FORMAT=tle",
            "launchDate": "2026-04-23T03:23:09.000Z",
            "active": true,
            "batch": [
                {
                    "noradId": "68824",
                    "tle": [
                        "1 68824C 26089Y   26123.39909722  .00066421  00000+0  34719-3 0  1232",
                        "2 68824  97.2838 329.0000 0000805 107.6985 359.1174 15.80801700    11"
                    ]
                },
                {
                    "noradId": "68823",
                    "tle": [
                        "1 68823C 26089X   26123.39076389 -.00063733  00000+0 -33379-3 0  1231",
                        "2 68823  97.2839 328.9893 0002006  56.2072 358.9006 15.80822786    18"
                    ]
                },
                {
                    "noradId": "68822",
                    "tle": [
                        "1 68822C 26089W   26123.39631944  .00035125  00000+0  18376-3 0  1236",
                        "2 68822  97.2838 328.9914 0001378  86.3986 351.8220 15.80798392    14"
                    ]
                },
                {
                    "noradId": "68825",
                    "tle": [
                        "1 68825C 26089Z   26123.45881944  .00040253  00000+0  21051-3 0  1235",
                        "2 68825  97.2838 329.0643 0001898  93.3159 357.4339 15.80801707    13"
                    ]
                },
                {
                    "noradId": "68820",
                    "tle": [
                        "1 68820C 26089U   26123.41020833  .00010252  00000+0  53618-4 0  1239",
                        "2 68820  97.2839 329.0075 0000979  99.2606  62.2049 15.80817543    13"
                    ]
                },
                {
                    "noradId": "68821",
                    "tle": [
                        "1 68821C 26089V   26123.46576389 -.01799700  00000+0 -96350-2 0  1230",
                        "2 68821  97.2839 329.0641 0001925  58.6833  50.1178 15.81232523    15"
                    ]
                },
                {
                    "noradId": "68819",
                    "tle": [
                        "1 68819C 26089T   26123.46576389 -.01684800  00000+0 -90056-2 0  1238",
                        "2 68819  97.2839 329.0615 0002459  87.7876  16.7599 15.81206046    12"
                    ]
                },
                {
                    "noradId": "68818",
                    "tle": [
                        "1 68818C 26089S   26123.39562500 -.01849900  00000+0 -99155-2 0  1232",
                        "2 68818  97.2839 328.9852 0001987  74.0137 347.3760 15.81232861    13"
                    ]
                },
                {
                    "noradId": "68817",
                    "tle": [
                        "1 68817C 26089R   26123.46368056 -.01992000  00000+0 -10769-1 0  1232",
                        "2 68817  97.2839 329.0552 0002217  82.1968   1.9747 15.81116378    12"
                    ]
                },
                {
                    "noradId": "68816",
                    "tle": [
                        "1 68816C 26089Q   26123.45118056 -.02100400  00000+0 -11702-1 0  1237",
                        "2 68816  97.2840 329.0394 0001304  82.2586 282.2638 15.80510580    15"
                    ]
                },
                {
                    "noradId": "68815",
                    "tle": [
                        "1 68815C 26089P   26123.41020833 -.02035800  00000+0 -11075-1 0  1231",
                        "2 68815  97.2840 328.9975 0001763  61.7578  74.0633 15.81000912    15"
                    ]
                },
                {
                    "noradId": "68814",
                    "tle": [
                        "1 68814C 26089N   26123.46645833 -.02079800  00000+0 -11589-1 0  1236",
                        "2 68814  97.2839 329.0538 0001402  69.0349  18.0917 15.80495439    10"
                    ]
                },
                {
                    "noradId": "46714",
                    "tle": [
                        "1 46714C 20073AW  26123.37687500  .00547870  00000+0  11771-2 0  1232",
                        "2 46714  53.0308 282.8154 0009563 296.1751 157.1140 15.97419171    12"
                    ]
                },
                {
                    "noradId": "68812",
                    "tle": [
                        "1 68812C 26089L   26123.41923611 -.02093400  00000+0 -11943-1 0  1238",
                        "2 68812  97.2840 328.9999 0001920  85.4051  84.3630 15.79975732    11"
                    ]
                },
                {
                    "noradId": "68811",
                    "tle": [
                        "1 68811C 26089K   26123.42756944 -.00664170  00000+0 -34934-2 0  1233",
                        "2 68811  97.2840 329.0072 0002195  98.5312 114.6269 15.81035434    18"
                    ]
                },
                {
                    "noradId": "68810",
                    "tle": [
                        "1 68810C 26089J   26123.46576389 -.02075400  00000+0 -11444-1 0  1233",
                        "2 68810  97.2840 329.0459 0001519  86.8583 339.2664 15.80725201    16"
                    ]
                },
                {
                    "noradId": "68809",
                    "tle": [
                        "1 68809C 26089H   26123.39076389 -.02088000  00000+0 -11539-1 0  1233",
                        "2 68809  97.2840 328.9649 0001672  73.1221 282.1954 15.80681439    13"
                    ]
                },
                {
                    "noradId": "68808",
                    "tle": [
                        "1 68808C 26089G   26123.42270833 -.02048300  00000+0 -11798-1 0  1232",
                        "2 68808  97.2841 328.9967 0002129  77.2390  95.0354 15.79738638    13"
                    ]
                },
                {
                    "noradId": "68806",
                    "tle": [
                        "1 68806C 26089E   26123.45743056 -.02058200  00000+0 -12316-1 0  1232",
                        "2 68806  97.2841 329.0295 0001287  71.4385 288.6482 15.78888490    14"
                    ]
                },
                {
                    "noradId": "68807",
                    "tle": [
                        "1 68807C 26089F   26123.40256944 -.02092300  00000+0 -12425-1 0  1233",
                        "2 68807  97.2840 328.9730 0001811  79.1790 333.4535 15.79076121    13"
                    ]
                },
                {
                    "noradId": "68805",
                    "tle": [
                        "1 68805C 26089D   26123.41298611 -.02101400  00000+0 -11764-1 0  1236",
                        "2 68805  97.2840 328.9809 0002012  86.8630  17.6823 15.80401786    12"
                    ]
                },
                {
                    "noradId": "68804",
                    "tle": [
                        "1 68804C 26089C   26123.47131944 -.02053000  00000+0 -12029-1 0  1233",
                        "2 68804  97.2841 329.0409 0001702  82.2394 348.9641 15.79359023    14"
                    ]
                },
                {
                    "noradId": "68803",
                    "tle": [
                        "1 68803C 26089B   26123.41229167 -.02060800  00000+0 -12364-1 0  1239",
                        "2 68803  97.2841 328.9763 0001941  79.3262  11.1441 15.78828534    14"
                    ]
                },
                {
                    "noradId": "68802",
                    "tle": [
                        "1 68802C 26089A   26123.41784722 -.02076200  00000+0 -12437-1 0  1233",
                        "2 68802  97.2841 328.9799 0001899  72.7634  45.0799 15.78873096    19"
                    ]
                }
            ]
        }
    ],
    "config": {}
}